[{"OBJECT_NAME":"STARLINK-3107","OBJECT_ID":"2021-082AT","EPOCH":"2026-03-09T21:59:27.140640","MEAN_MOTION":15.10504087,"ECCENTRICITY":0.00073375,"INCLINATION":69.9932,"RA_OF_ASC_NODE":287.3824,"ARG_OF_PERICENTER":250.2407,"MEAN_ANOMALY":109.7967,"EPHEMERIS_TYPE":0,"CLASSIFICATION_TYPE":"U","NORAD_CAT_ID":49171,"ELEMENT_SET_NO":999,"REV_AT_EPOCH":24733,"BSTAR":0.001517345,"MEAN_MOTION_DOT":0.00025048,"MEAN_MOTION_DDOT":0},{"OBJECT_NAME":"STARLINK-3556","OBJECT_ID":"2022-022AB","EPOCH":"2026-03-09T04:36:39.892896","MEAN_MOTION":15.08839706,"ECCENTRICITY":0.0001378,"INCLINATION":53.2195,"RA_OF_ASC_NODE":1.3541,"ARG_OF_PERICENTER":92.7699,"MEAN_ANOMALY":267.3451,"EPHEMERIS_TYPE":0,"CLASSIFICATION_TYPE":"U","NORAD_CAT_ID":51877,"ELEMENT_SET_NO":999,"REV_AT_EPOCH":22317,"BSTAR":1.2108162e-5,"MEAN_MOTION_DOT":-9.5e-7,"MEAN_MOTION_DDOT":0}]
